{"type": "FeatureCollection", "features": [{"type": "Feature", "properties": {"norad_id": 26766, "name": "INTELSAT 10 (IS-10)", "group": "intelsat", "lat": -3.1156672882173715, "lon": 40.072083401931664, "alt_km": 36137.372756456054, "timestamp": "2025-12-25T14:48:24.468846+00:00", "meta": {"OBJECT_NAME": "INTELSAT 10 (IS-10)", "OBJECT_ID": "2001-019A", "EPOCH": "2025-12-24T19:52:43.092192", "MEAN_MOTION": 0.9907234, "ECCENTRICITY": 0.00079377, "INCLINATION": 8.6564, "RA_OF_ASC_NODE": 61.0345, "ARG_OF_PERICENTER": 229.6069, "MEAN_ANOMALY": 187.8365, "EPHEMERIS_TYPE": 0, "CLASSIFICATION_TYPE": "U", "NORAD_CAT_ID": 26766, "ELEMENT_SET_NO": 999, "REV_AT_EPOCH": 4385, "BSTAR": 0, "MEAN_MOTION_DOT": 1.5e-07, "MEAN_MOTION_DDOT": 0}, "tle": {"line1": "1 26766U 01019A   25358.82827653  .00000015  00000+0  00000+0 0  9996", "line2": "2 26766   8.6564  61.0345 0007937 229.6069 187.8365  0.99072340 43859"}}, "geometry": {"type": "Point", "coordinates": [40.072083401931664, -3.1156672882173715]}}, {"type": "Feature", "properties": {"norad_id": 26900, "name": "INTELSAT 902 (IS-902)", "group": "intelsat", "lat": -1.2300135972190012, "lon": -93.78798456488731, "alt_km": 35768.55632099905, "timestamp": "2025-12-25T14:48:24.468868+00:00", "meta": {"OBJECT_NAME": "INTELSAT 902 (IS-902)", "OBJECT_ID": "2001-039A", "EPOCH": "2025-12-15T13:09:02.081664", "MEAN_MOTION": 1.0027087, "ECCENTRICITY": 0.00045028, "INCLINATION": 5.6536, "RA_OF_ASC_NODE": 74.0372, "ARG_OF_PERICENTER": 189.6359, "MEAN_ANOMALY": 327.9329, "EPHEMERIS_TYPE": 0, "CLASSIFICATION_TYPE": "U", "NORAD_CAT_ID": 26900, "ELEMENT_SET_NO": 999, "REV_AT_EPOCH": 8885, "BSTAR": 0, "MEAN_MOTION_DOT": -2.65e-06, "MEAN_MOTION_DDOT": 0}, "tle": {"line1": "1 26900U 01039A   25349.54794076 -.00000265  00000+0  00000+0 0  9997", "line2": "2 26900   5.6536  74.0372 0004502 189.6359 327.9329  1.00270870 88858"}}, "geometry": {"type": "Point", "coordinates": [-93.78798456488731, -1.2300135972190012]}}, {"type": "Feature", "properties": {"norad_id": 27380, "name": "INTELSAT 904 (IS-904)", "group": "intelsat", "lat": -3.6106258092625025, "lon": -75.1895047773425, "alt_km": 35779.28033247511, "timestamp": "2025-12-25T14:48:24.468882+00:00", "meta": {"OBJECT_NAME": "INTELSAT 904 (IS-904)", "OBJECT_ID": "2002-007A", "EPOCH": "2025-12-24T23:13:20.404128", "MEAN_MOTION": 1.00272977, "ECCENTRICITY": 0.00019711, "INCLINATION": 6.4832, "RA_OF_ASC_NODE": 71.2913, "ARG_OF_PERICENTER": 246.5744, "MEAN_ANOMALY": 92.7188, "EPHEMERIS_TYPE": 0, "CLASSIFICATION_TYPE": "U", "NORAD_CAT_ID": 27380, "ELEMENT_SET_NO": 999, "REV_AT_EPOCH": 5001, "BSTAR": 0, "MEAN_MOTION_DOT": -2.07e-06, "MEAN_MOTION_DDOT": 0}, "tle": {"line1": "1 27380U 02007A   25358.96759727 -.00000207  00000+0  00000+0 0  9992", "line2": "2 27380   6.4832  71.2913 0001971 246.5744  92.7188  1.00272977 50014"}}, "geometry": {"type": "Point", "coordinates": [-75.1895047773425, -3.6106258092625025]}}, {"type": "Feature", "properties": {"norad_id": 27426, "name": "DIRECTV 5 (TEMPO 1)", "group": "intelsat", "lat": 3.4514444074915254, "lon": -153.59756540255836, "alt_km": 35782.137138277176, "timestamp": "2025-12-25T14:48:24.468894+00:00", "meta": {"OBJECT_NAME": "DIRECTV 5 (TEMPO 1)", "OBJECT_ID": "2002-023A", "EPOCH": "2025-12-25T04:50:38.690880", "MEAN_MOTION": 1.00271563, "ECCENTRICITY": 0.00033428, "INCLINATION": 4.432, "RA_OF_ASC_NODE": 77.5066, "ARG_OF_PERICENTER": 204.3103, "MEAN_ANOMALY": 134.691, "EPHEMERIS_TYPE": 0, "CLASSIFICATION_TYPE": "U", "NORAD_CAT_ID": 27426, "ELEMENT_SET_NO": 999, "REV_AT_EPOCH": 8637, "BSTAR": 0, "MEAN_MOTION_DOT": -3.7e-07, "MEAN_MOTION_DDOT": 0}, "tle": {"line1": "1 27426U 02023A   25359.20183670 -.00000037  00000+0  00000+0 0  9998", "line2": "2 27426   4.4320  77.5066 0003342 204.3103 134.6910  1.00271563 86375"}}, "geometry": {"type": "Point", "coordinates": [-153.59756540255836, 3.4514444074915254]}}, {"type": "Feature", "properties": {"norad_id": 27438, "name": "INTELSAT 905 (IS-905)", "group": "intelsat", "lat": 6.036415617629737, "lon": 179.36291384054604, "alt_km": 35786.50988980358, "timestamp": "2025-12-25T14:48:24.468904+00:00", "meta": {"OBJECT_NAME": "INTELSAT 905 (IS-905)", "OBJECT_ID": "2002-027A", "EPOCH": "2025-12-23T05:41:27.377952", "MEAN_MOTION": 1.00273243, "ECCENTRICITY": 0.00027491, "INCLINATION": 6.3102, "RA_OF_ASC_NODE": 71.9349, "ARG_OF_PERICENTER": 206.5226, "MEAN_ANOMALY": 121.7385, "EPHEMERIS_TYPE": 0, "CLASSIFICATION_TYPE": "U", "NORAD_CAT_ID": 27438, "ELEMENT_SET_NO": 999, "REV_AT_EPOCH": 4959, "BSTAR": 0, "MEAN_MOTION_DOT": 1.12e-06, "MEAN_MOTION_DDOT": 0}, "tle": {"line1": "1 27438U 02027A   25357.23712243  .00000112  00000+0  00000+0 0  9993", "line2": "2 27438   6.3102  71.9349 0002749 206.5226 121.7385  1.00273243 49592"}}, "geometry": {"type": "Point", "coordinates": [179.36291384054604, 6.036415617629737]}}, {"type": "Feature", "properties": {"norad_id": 27445, "name": "GALAXY 3C (G-3C)", "group": "intelsat", "lat": 2.053264397208656, "lon": -138.3258396804454, "alt_km": 35783.33486483606, "timestamp": "2025-12-25T14:48:24.468916+00:00", "meta": {"OBJECT_NAME": "GALAXY 3C (G-3C)", "OBJECT_ID": "2002-030A", "EPOCH": "2025-12-25T01:46:06.549024", "MEAN_MOTION": 1.00271232, "ECCENTRICITY": 0.000108, "INCLINATION": 3.2924, "RA_OF_ASC_NODE": 80.3778, "ARG_OF_PERICENTER": 87.2534, "MEAN_ANOMALY": 217.8805, "EPHEMERIS_TYPE": 0, "CLASSIFICATION_TYPE": "U", "NORAD_CAT_ID": 27445, "ELEMENT_SET_NO": 999, "REV_AT_EPOCH": 4474, "BSTAR": 0, "MEAN_MOTION_DOT": -1.32e-06, "MEAN_MOTION_DDOT": 0}, "tle": {"line1": "1 27445U 02030A   25359.07368691 -.00000132  00000+0  00000+0 0  9996", "line2": "2 27445   3.2924  80.3778 0001080  87.2534 217.8805  1.00271232 44743"}}, "geometry": {"type": "Point", "coordinates": [-138.3258396804454, 2.053264397208656]}}, {"type": "Feature", "properties": {"norad_id": 27513, "name": "INTELSAT 906 (IS-906)", "group": "intelsat", "lat": -4.3601172554998655, "lon": 20.792008180197087, "alt_km": 35793.361336677044, "timestamp": "2025-12-25T14:48:24.468927+00:00", "meta": {"OBJECT_NAME": "INTELSAT 906 (IS-906)", "OBJECT_ID": "2002-041A", "EPOCH": "2025-12-24T20:15:07.471872", "MEAN_MOTION": 1.0027071, "ECCENTRICITY": 0.0006188, "INCLINATION": 5.3608, "RA_OF_ASC_NODE": 75.0877, "ARG_OF_PERICENTER": 201.2987, "MEAN_ANOMALY": 185.1407, "EPHEMERIS_TYPE": 0, "CLASSIFICATION_TYPE": "U", "NORAD_CAT_ID": 27513, "ELEMENT_SET_NO": 999, "REV_AT_EPOCH": 8528, "BSTAR": 0, "MEAN_MOTION_DOT": 3.2e-07, "MEAN_MOTION_DDOT": 0}, "tle": {"line1": "1 27513U 02041A   25358.84383648  .00000032  00000+0  00000+0 0  9995", "line2": "2 27513   5.3608  75.0877 0006188 201.2987 185.1407  1.00270710 85285"}}, "geometry": {"type": "Point", "coordinates": [20.792008180197087, -4.3601172554998655]}}, {"type": "Feature", "properties": {"norad_id": 27954, "name": "GALAXY 13 (HORIZONS-1)", "group": "intelsat", "lat": 0.9648132757121214, "lon": 166.41351944600905, "alt_km": 35788.4476333246, "timestamp": "2025-12-25T14:48:24.468938+00:00", "meta": {"OBJECT_NAME": "GALAXY 13 (HORIZONS-1)", "OBJECT_ID": "2003-044A", "EPOCH": "2025-12-25T03:47:39.130656", "MEAN_MOTION": 1.00271894, "ECCENTRICITY": 0.00023178, "INCLINATION": 0.9689, "RA_OF_ASC_NODE": 86.3079, "ARG_OF_PERICENTER": 185.2951, "MEAN_ANOMALY": 89.2017, "EPHEMERIS_TYPE": 0, "CLASSIFICATION_TYPE": "U", "NORAD_CAT_ID": 27954, "ELEMENT_SET_NO": 999, "REV_AT_EPOCH": 4482, "BSTAR": 0, "MEAN_MOTION_DOT": 1.54e-06, "MEAN_MOTION_DDOT": 0}, "tle": {"line1": "1 27954U 03044A   25359.15809179  .00000154  00000+0  00000+0 0  9990", "line2": "2 27954   0.9689  86.3079 0002317 185.2951  89.2017  1.00271894 44825"}}, "geometry": {"type": "Point", "coordinates": [166.41351944600905, 0.9648132757121214]}}, {"type": "Feature", "properties": {"norad_id": 28358, "name": "INTELSAT 10-02", "group": "intelsat", "lat": -0.033169973450207106, "lon": -44.48555064743529, "alt_km": 35781.40487877051, "timestamp": "2025-12-25T14:48:24.468958+00:00", "meta": {"OBJECT_NAME": "INTELSAT 10-02", "OBJECT_ID": "2004-022A", "EPOCH": "2025-12-25T02:23:21.556320", "MEAN_MOTION": 1.00270312, "ECCENTRICITY": 0.00012209, "INCLINATION": 0.0162, "RA_OF_ASC_NODE": 46.3363, "ARG_OF_PERICENTER": 259.2593, "MEAN_ANOMALY": 183.1536, "EPHEMERIS_TYPE": 0, "CLASSIFICATION_TYPE": "U", "NORAD_CAT_ID": 28358, "ELEMENT_SET_NO": 999, "REV_AT_EPOCH": 7881, "BSTAR": 0, "MEAN_MOTION_DOT": 1e-07, "MEAN_MOTION_DDOT": 0}, "tle": {"line1": "1 28358U 04022A   25359.09955505  .00000010  00000+0  00000+0 0  9995", "line2": "2 28358   0.0162  46.3363 0001220 259.2593 183.1536  1.00270312 78819"}}, "geometry": {"type": "Point", "coordinates": [-44.48555064743529, -0.033169973450207106]}}, {"type": "Feature", "properties": {"norad_id": 28626, "name": "XM-3 (RHYTHM)", "group": "intelsat", "lat": -0.1969344364810142, "lon": 9.548526556078041, "alt_km": 36151.744916614465, "timestamp": "2025-12-25T14:48:24.468969+00:00", "meta": {"OBJECT_NAME": "XM-3 (RHYTHM)", "OBJECT_ID": "2005-008A", "EPOCH": "2025-12-25T03:09:38.893824", "MEAN_MOTION": 0.98950171, "ECCENTRICITY": 0.00021729, "INCLINATION": 0.2047, "RA_OF_ASC_NODE": 82.2256, "ARG_OF_PERICENTER": 273.6055, "MEAN_ANOMALY": 200.8586, "EPHEMERIS_TYPE": 0, "CLASSIFICATION_TYPE": "U", "NORAD_CAT_ID": 28626, "ELEMENT_SET_NO": 999, "REV_AT_EPOCH": 4087, "BSTAR": 0, "MEAN_MOTION_DOT": 9.5e-07, "MEAN_MOTION_DDOT": 0}, "tle": {"line1": "1 28626U 05008A   25359.13170016  .00000095  00000+0  00000+0 0  9992", "line2": "2 28626   0.2047  82.2256 0002172 273.6055 200.8586  0.98950171 40872"}}, "geometry": {"type": "Point", "coordinates": [9.548526556078041, -0.1969344364810142]}}]}